STARLINK-2451
1 18114C 21027Y   21326.16110986 -.00016832  00000-0 -11279-2 0  3264
2 18114  53.0568   8.0225 0001592  58.8145  37.8209 15.06413037    12
